LIZZIESAT-2 (LS-2)      
1 62383U 24247G   26068.49140277  .00009388  00000+0  34517-3 0  9997
2 62383  44.9909 117.0823 0004092 327.5136  32.5495 15.28222796 67716
STARLINK-32921          
1 62920U 25027P   26068.23068193  .00029188  00000+0  10649-2 0  9998
2 62920  42.9985 131.3284 0001420 183.4353 176.6489 15.27612444 61479
